#cP2023  3 28  0  0  0.00000000      96 ORBIT IGS20 HLM  IGS
## 2255 172800.00000000   900.00000000 60031 0.0000000000000
+   32   G01G02G03G04G05G06G07G08G09G10G11G12G13G14G15G16G17
+        G18G19G20G21G22G23G24G25G26G27G28G29G30G31G32  0  0
+          0  0  0  0  0  0  0  0  0  0  0  0  0  0  0  0  0
+          0  0  0  0  0  0  0  0  0  0  0  0  0  0  0  0  0
+          0  0  0  0  0  0  0  0  0  0  0  0  0  0  0  0  0
++         2  2  2  2  2  2  2  2  2  2  3  2  2  2  2  2  2
++         3  2  2  2  3  2  3  2  2  2  3  2  2  2  2  0  0
++         0  0  0  0  0  0  0  0  0  0  0  0  0  0  0  0  0
++         0  0  0  0  0  0  0  0  0  0  0  0  0  0  0  0  0
++         0  0  0  0  0  0  0  0  0  0  0  0  0  0  0  0  0
%c G  cc GPS ccc cccc cccc cccc cccc ccccc ccccc ccccc ccccc
%c cc cc ccc ccc cccc cccc cccc cccc ccccc ccccc ccccc ccccc
%f  1.2500000  1.025000000  0.00000000000  0.000000000000000
%f  0.0000000  0.000000000  0.00000000000  0.000000000000000
%i    0    0    0    0      0      0      0      0         0
%i    0    0    0    0      0      0      0      0         0
/* RAPID ORBIT COMBINATION FROM WEIGHTED AVERAGE OF:        
/* cod emr esa gfz grg jpl sio usn whu                      
/* REFERENCED TO IGS TIME (IGST) AND TO WEIGHTED MEAN POLE: 
/* PCV:IGS20_2233 OL/AL:FES2014b NONE     Y  ORB:CMB CLK:CMB
*  2023  3 28 19 30  0.00000000
PG01  13999.960141  -3536.694723  21959.255200    198.353893  3  7  3  94       
PG02 -12562.202351   8808.586515 -21093.326643   -610.862760  5  6  6 121       
PG03  22063.859015 -11326.129924   9215.156802   -341.225630  5  5     93       
PG04  22667.196738  -1863.249035 -13799.217204      3.540762  6  7  7 102       
PG05 -17283.591492  -2681.617465 -20192.432991   -121.245085  2  7  6 115       
PG06  -5121.779210 -26006.217565     50.438567    584.282582  6  7  4 114       
PG07   8501.250302 -18136.153779 -16749.581804    213.544679  8  7  8 110       
PG08  25952.100480   6142.834339   2328.808713   -115.112962  5  5  4 100       
PG09  14120.405611 -10448.438419 -20005.988008   -191.485949  6  4  7  92       
PG10  -6041.120561  20109.653984  16252.179710    -30.467355  6  4  5  85       
PG11 -12240.754123 -19565.165005 -13167.106080   -144.480111  8 11  9 112       
PG12 -22701.276766   8165.454079  10720.888912   -357.112695  4  9    101       
PG13 -22690.592200 -13666.786012  -3273.237681    497.448965  7  9  7  96       
PG14   9206.066962 -20624.606402  13870.904214      8.732821  6  8  5  92       
PG15 -26384.657893  -3207.352283   2151.425316     25.635089  5  5  5  85       
PG16  15254.522519   6809.725863 -21050.908868   -512.621565  7  6  5 105       
PG17   -214.162582 -15920.831896  21673.182071    707.862273  3  7  5 111       
PG18  -6131.937504  21228.694251 -14628.048968   -199.616618  5  9  6  90       
PG19 -10939.134423 -17438.682168  16710.856893    296.177924  5  9  5 114       
PG20 -10249.295667 -11845.319747 -21429.826167    442.228761  1  6  7 110       
PG21  16724.531933   5846.348334  20594.458463    154.322567  6  6  5  97       
PG22  13759.379560  17371.286568  15206.607342    453.894447  5  5  5  92       
PG23 -15710.102524  20460.293485   5998.329641     13.270687  8  9  3  76       
PG24 -16200.504422   -675.274244  20739.213010   -129.991718  8  8  7 103       
PG25 -20257.560120  16826.483594   1712.137253    431.312245  5  8  4 103       
PG26   4763.997275  16528.563107 -20273.434274    241.959482  9  6  5 107       
PG27  21871.081188  13174.409563  -8305.068793     71.034733  3  6  7 105       
PG28   4951.102406  26022.845953   1951.790825     54.099729  5 10  5  79       
PG29 -17874.478184   6220.973188 -18718.422413   -593.017030  6  8  5 130       
PG30    351.509960 -25410.744780  -7131.909383   -524.958231  8  9  5 102       
PG31   7972.966858  24662.673847  -4784.339528   -212.687090  5  9  8  92       
PG32   4345.106226  16529.947293  20555.070850   -436.342237  4  8  5  84       
*  2023  3 28 19 45  0.00000000
PG01  14569.266447  -1028.840546  21881.788798    198.350683  4  7  3  99       
PG02 -13384.536148   6381.450766 -21427.318148   -610.860093  5  7  6 121       
PG03  21313.560773 -10347.411612  11758.544324   -341.218747  6  5  1 100       
PG04  23974.752926  -1220.216045 -11476.806844      3.548732  7  7  7 121       
PG05 -15725.280932  -4410.418412 -21137.623541   -121.246645  1  7  6 112       
PG06  -4908.341767 -25886.308782   2960.980595    584.284525  6  7  4 120       
PG07   9181.712073 -16130.421994 -18367.956852    213.537399  8  7  7 115       
PG08  26000.002873   6392.667383   -498.545659   -115.114006  5  6  4 105       
PG09  16215.035045  -9757.384944 -18725.161348   -191.479088  7  4  7  93       
PG10  -7396.623229  21179.460929  14148.975226    -30.468627  6  4  5  89       
PG11 -12296.472409 -20948.100755 -10774.884965   -144.490888  8 11  8 103       
PG12 -21753.941540   7104.165987  13118.979986   -357.116583  5  9     89       
PG13 -22139.019380 -13645.798151  -6069.201022    497.454207  7  9  7 105       
PG14  10458.431472 -21417.598033  11580.026966      8.742627  6  7  5  92       
PG15 -26471.052227  -3540.882099   -628.640721     25.638395  5  6  5  68       
PG16  13418.313353   8315.790840 -21718.927980   -512.619351  8  7  5 108       
PG17   2065.732259 -15129.544164  22155.792517    707.864203  3  6  5 113       
PG18  -6677.561541  19513.572884 -16651.089579   -199.631614  4  9  6  82       
PG19  -9010.619730 -16768.558093  18411.691041    296.182462  5  8  5 109       
PG20  -8755.196243 -13767.754642 -20956.759741    442.226716  2  7  7 109       
PG21  17351.118052   7907.713025  19389.383208    154.322685  6  6  5  96       
PG22  12054.369123  16869.945544  17137.421173    453.900911  6     5 101       
PG23 -16241.752660  20673.510341   3174.358077     13.272709  7  9  3  85       
PG24 -16896.243365  -2979.637780  20018.131515   -130.005277  8  8  7 108       
PG25 -20181.591935  16337.807389   4539.020995    431.314896  5  8  4 104       
PG26   3135.335805  18091.572868 -19191.443744    241.959469  9  6  6 100       
PG27  20810.876492  13049.172300 -10866.412569     71.027255  4  6  7 112       
PG28   4606.927502  25716.172448   4775.237449     54.107203  5  9  6  78       
PG29 -19731.237695   5391.726312 -17037.335248   -593.018336  6  8  5 127       
PG30    886.278818 -24520.809104  -9721.610133   -524.956778  8  8  5 114       
PG31   7757.513152  25089.939109  -1949.519189   -212.687945  5  7  8 103       
PG32   2060.632808  15942.211493  21348.818160   -436.351722  4  8  4  97       
*  2023  3 28 20  0  0.00000000
PG01  15268.094418   1409.510671  21416.935046    198.347439  4  7  4  87       
PG02 -14337.509640   3982.068117 -21370.940514   -610.857291  5  7  6 124       
PG03  20427.752209  -9125.151098  14097.026800   -341.211809  6  5  2  84       
PG04  25049.822685   -718.110870  -8957.934387      3.556748  6  7  7 111       
PG05 -14205.178033  -6285.817206 -21725.254244   -121.247312  2  7  6 116       
PG06  -4595.339485 -25463.910160   5820.297254    584.286461  5  7  3 119       
PG07  10007.035176 -14000.636113 -19653.782556    213.530490  8  7  7 121       
PG08  25751.026122   6575.729588  -3317.531322   -115.116069  6  7  4  98       
PG09  18183.509492  -9208.418541 -17124.369473   -191.472155  7  5  6  88       
PG10  -8522.694210  22137.009293  11801.271782    -30.470292  6  4  5 105       
PG11 -12357.022138 -22053.068140  -8197.488225   -144.501680  9 12  8 101       
PG12 -20672.033409   5815.132644  15286.585828   -357.120629  4  9    101       
PG13 -21299.257293 -13543.621158  -8762.408632    497.459570  8  8  7 104       
PG14  11478.636054 -22080.473855   9088.476164      8.752379  7  7  5  99       
PG15 -26264.401490  -3837.606005  -3398.115304     25.641488  6  6  5  92       
PG16  11622.957774   9957.605481 -22025.163933   -512.617309  9  7  5  96       
PG17   4416.509203 -14457.002760  22271.740645    707.866032  3  5  5 104       
PG18  -7372.976202  17625.728614 -18385.873024   -199.646600  3  9  5 106       
PG19  -6879.340813 -16145.974548  19792.921233    296.187474  5  8  4  99       
PG20  -7401.205081 -15699.400725 -20123.049280    442.224891  4  7  7 109       
PG21  18033.008376   9790.172954  17873.397742    154.323044  6  6  5  88       
PG22  10137.382105  16399.413402  18784.332434    453.907232  6     7  95       
PG23 -16547.022299  20671.227985    295.263001     13.274750  7  9  3  95       
PG24 -17661.057691  -5148.389792  18944.873934   -130.018787  8  8  8 104       
PG25 -19916.683443  15609.022696   7285.958997    431.317511  5  7  4 107       
PG26   1669.616724  19624.079545 -17779.225780    241.959448  9  5  6 102       
PG27  19476.716862  12920.012249 -13246.918186     71.019808  5  7  7 107       
PG28   4144.481418  25129.899355   7516.474888     54.114703  6  9  6  78       
PG29 -21433.400163   4727.313671 -15065.049702   -593.019429  6  8  6  98       
PG30   1542.498452 -23384.015310 -12140.793009   -524.955344  8  8  5 107       
PG31   7474.553148  25214.316495    919.704466   -212.688519  5  6  8  96       
PG32   -320.134797  15460.036545  21781.914675   -436.361249  4  8  4  79       
EOF
